{
  "norad_id": 61860,
  "name": "STARLINK-32316",
  "history": [
    {
      "epoch": "2026-03-28T19:21:25.265088Z",
      "apogee_km": 483.8879878028374,
      "perigee_km": 482.18627939422277,
      "latitude_deg": -6.241499579234899e-05,
      "longitude_deg": 9.787161866264878,
      "height_km": 482.65718083015406,
      "semi_major_axis_km": 6861.17413359853,
      "eccentricity": 0.00012401,
      "inclination_deg": 43.0012,
      "raan_deg": 126.3642,
      "arg_perigee_deg": 280.6102,
      "mean_anomaly_deg": 79.4609,
      "mean_motion_rev_day": 15.27583995
    },
    {
      "epoch": "2026-03-29T09:28:51.068064Z",
      "apogee_km": 484.033930124624,
      "perigee_km": 482.1470925590056,
      "latitude_deg": -2.7981746038030115e-05,
      "longitude_deg": 154.02634105246804,
      "height_km": 482.80126386950707,
      "semi_major_axis_km": 6861.2275113418145,
      "eccentricity": 0.0001375,
      "inclination_deg": 43.0005,
      "raan_deg": 123.0409,
      "arg_perigee_deg": 274.0113,
      "mean_anomaly_deg": 86.0581,
      "mean_motion_rev_day": 15.27566169
    },
    {
      "epoch": "2026-03-30T10:35:20.197536Z",
      "apogee_km": 483.39673799607317,
      "perigee_km": 482.64996930318193,
      "latitude_deg": 5.028663381194857e-05,
      "longitude_deg": 130.46689985859115,
      "height_km": 483.08853676673914,
      "semi_major_axis_km": 6861.160353649627,
      "eccentricity": 5.442e-05,
      "inclination_deg": 43.0006,
      "raan_deg": 117.1339,
      "arg_perigee_deg": 219.1851,
      "mean_anomaly_deg": 140.8962,
      "mean_motion_rev_day": 15.27588597
    },
    {
      "epoch": "2026-03-30T18:26:07.465344Z",
      "apogee_km": 483.440391066606,
      "perigee_km": 482.6774260815728,
      "latitude_deg": 3.203579251621743e-06,
      "longitude_deg": 10.598958029342835,
      "height_km": 482.8468224701664,
      "semi_major_axis_km": 6861.195908574089,
      "eccentricity": 5.56e-05,
      "inclination_deg": 43.0025,
      "raan_deg": 115.2852,
      "arg_perigee_deg": 268.245,
      "mean_anomaly_deg": 91.8338,
      "mean_motion_rev_day": 15.27576723
    },
    {
      "epoch": "2026-03-31T17:58:28.981920Z",
      "apogee_km": 483.6629193918243,
      "perigee_km": 482.4869076698451,
      "latitude_deg": 3.9218662553827926e-05,
      "longitude_deg": 11.004120236065534,
      "height_km": 482.851436736406,
      "semi_major_axis_km": 6861.211913530834,
      "eccentricity": 8.57e-05,
      "inclination_deg": 43.0026,
      "raan_deg": 109.7467,
      "arg_perigee_deg": 269.9995,
      "mean_anomaly_deg": 90.0759,
      "mean_motion_rev_day": 15.27571378
    },
    {
      "epoch": "2026-04-01T17:30:49.573152Z",
      "apogee_km": 483.55112020380875,
      "perigee_km": 482.5658525319668,
      "latitude_deg": 3.066169139227691e-05,
      "longitude_deg": 11.411901001314625,
      "height_km": 482.8022846253419,
      "semi_major_axis_km": 6861.1954863678875,
      "eccentricity": 7.18e-05,
      "inclination_deg": 43.0038,
      "raan_deg": 104.207,
      "arg_perigee_deg": 273.8095,
      "mean_anomaly_deg": 86.2675,
      "mean_motion_rev_day": 15.27576864
    },
    {
      "epoch": "2026-04-02T17:03:10.142784Z",
      "apogee_km": 483.617333120088,
      "perigee_km": 482.4962140574844,
      "latitude_deg": -3.003555948686768e-05,
      "longitude_deg": 11.821415991678096,
      "height_km": 482.8870430849822,
      "semi_major_axis_km": 6861.193773588786,
      "eccentricity": 8.17e-05,
      "inclination_deg": 43.0012,
      "raan_deg": 98.669,
      "arg_perigee_deg": 264.4774,
      "mean_anomaly_deg": 95.5984,
      "mean_motion_rev_day": 15.27577436
    },
    {
      "epoch": "2026-04-02T17:03:10.143648Z",
      "apogee_km": 483.617333120088,
      "perigee_km": 482.4962140574844,
      "latitude_deg": -3.002487525920639e-05,
      "longitude_deg": 11.821412393197459,
      "height_km": 482.8870430837465,
      "semi_major_axis_km": 6861.193773588786,
      "eccentricity": 8.17e-05,
      "inclination_deg": 43.0012,
      "raan_deg": 98.669,
      "arg_perigee_deg": 264.4774,
      "mean_anomaly_deg": 95.5984,
      "mean_motion_rev_day": 15.27577436
    },
    {
      "epoch": "2026-04-03T16:35:30.962112Z",
      "apogee_km": 483.61324248209985,
      "perigee_km": 482.49212408785115,
      "latitude_deg": -6.2074374049725e-07,
      "longitude_deg": 12.228383146720102,
      "height_km": 482.8302708851148,
      "semi_major_axis_km": 6861.189683284975,
      "eccentricity": 8.17e-05,
      "inclination_deg": 43.0022,
      "raan_deg": 93.1294,
      "arg_perigee_deg": 269.8828,
      "mean_anomaly_deg": 90.193,
      "mean_motion_rev_day": 15.27578802
    },
    {
      "epoch": "2026-04-04T09:51:15.084000Z",
      "apogee_km": 483.79802736503007,
      "perigee_km": 482.35580020035286,
      "latitude_deg": -4.374613816260721e-06,
      "longitude_deg": 108.52330186428074,
      "height_km": 482.76751627053613,
      "semi_major_axis_km": 6861.213913782691,
      "eccentricity": 0.0001051,
      "inclination_deg": 43.0038,
      "raan_deg": 89.0671,
      "arg_perigee_deg": 276.868,
      "mean_anomaly_deg": 83.2052,
      "mean_motion_rev_day": 15.2757071
    },
    {
      "epoch": "2026-04-05T09:23:35.750400Z",
      "apogee_km": 483.6455369838195,
      "perigee_km": 482.4920310674088,
      "latitude_deg": 2.2264975432448737e-05,
      "longitude_deg": 108.93170359004066,
      "height_km": 482.9406263941711,
      "semi_major_axis_km": 6861.205784025614,
      "eccentricity": 8.406e-05,
      "inclination_deg": 43.0043,
      "raan_deg": 83.5283,
      "arg_perigee_deg": 260.502,
      "mean_anomaly_deg": 99.5737,
      "mean_motion_rev_day": 15.27573425
    },
    {
      "epoch": "2026-04-05T15:40:13.285920Z",
      "apogee_km": 483.5934197713432,
      "perigee_km": 482.5820752435611,
      "latitude_deg": -2.1618275114786996e-05,
      "longitude_deg": 13.040167272932711,
      "height_km": 482.7827294914095,
      "semi_major_axis_km": 6861.224747507452,
      "eccentricity": 7.37e-05,
      "inclination_deg": 43.0053,
      "raan_deg": 82.051,
      "arg_perigee_deg": 279.3022,
      "mean_anomaly_deg": 80.7746,
      "mean_motion_rev_day": 15.27567092
    },
    {
      "epoch": "2026-04-05T23:31:00.094944Z",
      "apogee_km": 483.6320889496137,
      "perigee_km": 482.5209840295147,
      "latitude_deg": 1.0417139328384529e-05,
      "longitude_deg": -106.82247431651264,
      "height_km": 482.8451503350086,
      "semi_major_axis_km": 6861.213536489564,
      "eccentricity": 8.097e-05,
      "inclination_deg": 43.0021,
      "raan_deg": 80.2056,
      "arg_perigee_deg": 270.8055,
      "mean_anomaly_deg": 89.2704,
      "mean_motion_rev_day": 15.27570836
    }
  ]
}